{"type": "FeatureCollection", "features": [ {"type": "Feature", "properties": {"norad_id": 66655, "name": "2025-274F", "group": "last-30-days", "lat": -65.61094014874556, "lon": 84.90394238175813, "alt_km": 602.5499375910149, "timestamp": "2025-12-21T07:34:33.300695+00:00", "meta": {"OBJECT_NAME": "2025-274F", "OBJECT_ID": "2025-274F", "EPOCH": "2025-12-20T20:48:34.641504", "MEAN_MOTION": 14.91178195, "ECCENTRICITY": 0.0004859, "INCLINATION": 97.7332, "RA_OF_ASC_NODE": 281.9048, "ARG_OF_PERICENTER": 356.2487, "MEAN_ANOMALY": 3.8694, "EPHEMERIS_TYPE": 0, "CLASSIFICATION_TYPE": "U", "NORAD_CAT_ID": 66655, "ELEMENT_SET_NO": 999, "REV_AT_EPOCH": 361, "BSTAR": 5.516133e-06, "MEAN_MOTION_DOT": 0, "MEAN_MOTION_DDOT": 0}, "tle": {"line1": "1 66655U 25274F   25354.86706761  .00000000  00000+0  55161-5 0  9990", "line2": "2 66655  97.7332 281.9048 0004859 356.2487   3.8694 14.91178195  3610"}}, "geometry": {"type": "Point", "coordinates": [84.90394238175813, -65.61094014874556]}}, {"type": "Feature", "properties": {"norad_id": 66656, "name": "2025-274G", "group": "last-30-days", "lat": -69.41068403582813, "lon": -56.40513527157363, "alt_km": 594.0418401866682, "timestamp": "2025-12-21T07:34:33.300704+00:00", "meta": {"OBJECT_NAME": "2025-274G", "OBJECT_ID": "2025-274G", "EPOCH": "2025-12-20T19:01:09.400224", "MEAN_MOTION": 14.92315893, "ECCENTRICITY": 0.00127012, "INCLINATION": 97.7403, "RA_OF_ASC_NODE": 281.8537, "ARG_OF_PERICENTER": 227.3803, "MEAN_ANOMALY": 132.6346, "EPHEMERIS_TYPE": 0, "CLASSIFICATION_TYPE": "U", "NORAD_CAT_ID": 66656, "ELEMENT_SET_NO": 999, "REV_AT_EPOCH": 360, "BSTAR": 0.00016073839, "MEAN_MOTION_DOT": 1.588e-05, "MEAN_MOTION_DDOT": 0}, "tle": {"line1": "1 66656U 25274G   25354.79246991  .00001588  00000+0  16074-3 0  9997", "line2": "2 66656  97.7403 281.8537 0012701 227.3803 132.6346 14.92315893  3600"}}, "geometry": {"type": "Point", "coordinates": [-56.40513527157363, -69.41068403582813]}}, {"type": "Feature", "properties": {"norad_id": 66657, "name": "SPIRONE", "group": "last-30-days", "lat": -54.31998556583765, "lon": -66.70723566544598, "alt_km": 593.5537965529311, "timestamp": "2025-12-21T07:34:33.300715+00:00", "meta": {"OBJECT_NAME": "SPIRONE", "OBJECT_ID": "2025-274H", "EPOCH": "2025-12-20T18:56:59.578944", "MEAN_MOTION": 14.92494728, "ECCENTRICITY": 0.00108252, "INCLINATION": 97.74, "RA_OF_ASC_NODE": 281.857, "ARG_OF_PERICENTER": 245.57, "MEAN_ANOMALY": 114.439, "EPHEMERIS_TYPE": 0, "CLASSIFICATION_TYPE": "U", "NORAD_CAT_ID": 66657, "ELEMENT_SET_NO": 999, "REV_AT_EPOCH": 360, "BSTAR": 0.00014714494, "MEAN_MOTION_DOT": 1.455e-05, "MEAN_MOTION_DDOT": 0}, "tle": {"line1": "1 66657U 25274H   25354.78957846  .00001455  00000+0  14714-3 0  9997", "line2": "2 66657  97.7400 281.8570 0010825 245.5700 114.4390 14.92494728  3600"}}, "geometry": {"type": "Point", "coordinates": [-66.70723566544598, -54.31998556583765]}}, {"type": "Feature", "properties": {"norad_id": 66658, "name": "2025-274J", "group": "last-30-days", "lat": -39.3398596539107, "lon": -71.21870102901384, "alt_km": 593.8555516127572, "timestamp": "2025-12-21T07:34:33.300724+00:00", "meta": {"OBJECT_NAME": "2025-274J", "OBJECT_ID": "2025-274J", "EPOCH": "2025-12-20T18:52:58.525536", "MEAN_MOTION": 14.92664797, "ECCENTRICITY": 0.00113384, "INCLINATION": 97.74, "RA_OF_ASC_NODE": 281.8607, "ARG_OF_PERICENTER": 248.8674, "MEAN_ANOMALY": 111.1334, "EPHEMERIS_TYPE": 0, "CLASSIFICATION_TYPE": "U", "NORAD_CAT_ID": 66658, "ELEMENT_SET_NO": 999, "REV_AT_EPOCH": 360, "BSTAR": 0.00013432413, "MEAN_MOTION_DOT": 1.329e-05, "MEAN_MOTION_DDOT": 0}, "tle": {"line1": "1 66658U 25274J   25354.78678849  .00001329  00000+0  13432-3 0  9997", "line2": "2 66658  97.7400 281.8607 0011338 248.8674 111.1334 14.92664797  3605"}}, "geometry": {"type": "Point", "coordinates": [-71.21870102901384, -39.3398596539107]}}, {"type": "Feature", "properties": {"norad_id": 66659, "name": "JACK K", "group": "last-30-days", "lat": -23.137189751448457, "lon": -74.2798073251476, "alt_km": 594.2594493315819, "timestamp": "2025-12-21T07:34:33.300734+00:00", "meta": {"OBJECT_NAME": "JACK K", "OBJECT_ID": "2025-274K", "EPOCH": "2025-12-20T18:48:39.993408", "MEAN_MOTION": 14.92849632, "ECCENTRICITY": 0.00120482, "INCLINATION": 97.7402, "RA_OF_ASC_NODE": 281.8653, "ARG_OF_PERICENTER": 250.4202, "MEAN_ANOMALY": 109.5717, "EPHEMERIS_TYPE": 0, "CLASSIFICATION_TYPE": "U", "NORAD_CAT_ID": 66659, "ELEMENT_SET_NO": 999, "REV_AT_EPOCH": 360, "BSTAR": 0.00012555127, "MEAN_MOTION_DOT": 1.245e-05, "MEAN_MOTION_DDOT": 0}, "tle": {"line1": "1 66659U 25274K   25354.78379622  .00001245  00000+0  12555-3 0  9997", "line2": "2 66659  97.7402 281.8653 0012048 250.4202 109.5717 14.92849632  3603"}}, "geometry": {"type": "Point", "coordinates": [-74.2798073251476, -23.137189751448457]}}, {"type": "Feature", "properties": {"norad_id": 66660, "name": "K-HERO", "group": "last-30-days", "lat": -9.978513385899085, "lon": -76.23368102203955, "alt_km": 594.444020651028, "timestamp": "2025-12-21T07:34:33.300743+00:00", "meta": {"OBJECT_NAME": "K-HERO", "OBJECT_ID": "2025-274L", "EPOCH": "2025-12-20T18:45:10.711008", "MEAN_MOTION": 14.93000619, "ECCENTRICITY": 0.00126544, "INCLINATION": 97.7407, "RA_OF_ASC_NODE": 281.8694, "ARG_OF_PERICENTER": 251.1884, "MEAN_ANOMALY": 108.7963, "EPHEMERIS_TYPE": 0, "CLASSIFICATION_TYPE": "U", "NORAD_CAT_ID": 66660, "ELEMENT_SET_NO": 999, "REV_AT_EPOCH": 360, "BSTAR": 0.00012043284, "MEAN_MOTION_DOT": 1.197e-05, "MEAN_MOTION_DDOT": 0}, "tle": {"line1": "1 66660U 25274L   25354.78137397  .00001197  00000+0  12043-3 0  9998", "line2": "2 66660  97.7407 281.8694 0012654 251.1884 108.7963 14.93000619  3601"}}, "geometry": {"type": "Point", "coordinates": [-76.23368102203955, -9.978513385899085]}}, {"type": "Feature", "properties": {"norad_id": 66661, "name": "SNUGLITE-III", "group": "last-30-days", "lat": 2.6790699459682616, "lon": -77.96487749909257, "alt_km": 594.327855956185, "timestamp": "2025-12-21T07:34:33.300752+00:00", "meta": {"OBJECT_NAME": "SNUGLITE-III", "OBJECT_ID": "2025-274M", "EPOCH": "2025-12-20T18:41:49.245216", "MEAN_MOTION": 14.93134387, "ECCENTRICITY": 0.00132617, "INCLINATION": 97.7402, "RA_OF_ASC_NODE": 281.8718, "ARG_OF_PERICENTER": 252.4411, "MEAN_ANOMALY": 107.536, "EPHEMERIS_TYPE": 0, "CLASSIFICATION_TYPE": "U", "NORAD_CAT_ID": 66661, "ELEMENT_SET_NO": 999, "REV_AT_EPOCH": 360, "BSTAR": 0.00014230197, "MEAN_MOTION_DOT": 1.429e-05, "MEAN_MOTION_DDOT": 0}, "tle": {"line1": "1 66661U 25274M   25354.77904219  .00001429  00000+0  14230-3 0  9991", "line2": "2 66661  97.7402 281.8718 0013261 252.4411 107.5360 14.93134387  3607"}}, "geometry": {"type": "Point", "coordinates": [-77.96487749909257, 2.6790699459682616]}}, {"type": "Feature", "properties": {"norad_id": 66662, "name": "2025-274N", "group": "last-30-days", "lat": 7.676561805601706, "lon": -78.64835831592545, "alt_km": 594.353899915378, "timestamp": "2025-12-21T07:34:33.300761+00:00", "meta": {"OBJECT_NAME": "2025-274N", "OBJECT_ID": "2025-274N", "EPOCH": "2025-12-20T18:40:29.805600", "MEAN_MOTION": 14.93190655, "ECCENTRICITY": 0.00136843, "INCLINATION": 97.7406, "RA_OF_ASC_NODE": 281.8732, "ARG_OF_PERICENTER": 252.269, "MEAN_ANOMALY": 107.7037, "EPHEMERIS_TYPE": 0, "CLASSIFICATION_TYPE": "U", "NORAD_CAT_ID": 66662, "ELEMENT_SET_NO": 999, "REV_AT_EPOCH": 360, "BSTAR": 0.00012048909, "MEAN_MOTION_DOT": 1.203e-05, "MEAN_MOTION_DDOT": 0}, "tle": {"line1": "1 66662U 25274N   25354.77812275  .00001203  00000+0  12049-3 0  9998", "line2": "2 66662  97.7406 281.8732 0013684 252.2690 107.7037 14.93190655  3607"}}, "geometry": {"type": "Point", "coordinates": [-78.64835831592545, 7.676561805601706]}}, {"type": "Feature", "properties": {"norad_id": 66663, "name": "KSLV-II R/B", "group": "last-30-days", "lat": 20.380788706280626, "lon": -80.31901399820822, "alt_km": 575.4262989881245, "timestamp": "2025-12-21T07:34:33.300771+00:00", "meta": {"OBJECT_NAME": "KSLV-II R/B", "OBJECT_ID": "2025-274P", "EPOCH": "2025-12-20T18:39:17.895744", "MEAN_MOTION": 14.97471728, "ECCENTRICITY": 0.00569376, "INCLINATION": 97.7441, "RA_OF_ASC_NODE": 282.0453, "ARG_OF_PERICENTER": 291.1678, "MEAN_ANOMALY": 68.3465, "EPHEMERIS_TYPE": 0, "CLASSIFICATION_TYPE": "U", "NORAD_CAT_ID": 66663, "ELEMENT_SET_NO": 999, "REV_AT_EPOCH": 361, "BSTAR": 0.00085036382, "MEAN_MOTION_DOT": 0.00010185, "MEAN_MOTION_DDOT": 0}, "tle": {"line1": "1 66663U 25274P   25354.77729046  .00010185  00000+0  85036-3 0  9997", "line2": "2 66663  97.7441 282.0453 0056937 291.1678  68.3465 14.97471728  3611"}}, "geometry": {"type": "Point", "coordinates": [-80.31901399820822, 20.380788706280626]}}, {"type": "Feature", "properties": {"norad_id": 66664, "name": "SOYUZ-MS 28", "group": "last-30-days", "lat": 17.597949948877677, "lon": 114.5615473438166, "alt_km": 416.27600128834547, "timestamp": "2025-12-21T07:34:33.300781+00:00", "meta": {"OBJECT_NAME": "SOYUZ-MS 28", "OBJECT_ID": "2025-275A", "EPOCH": "2025-12-20T16:00:06.135552", "MEAN_MOTION": 15.49686708, "ECCENTRICITY": 0.00031636, "INCLINATION": 51.6321, "RA_OF_ASC_NODE": 103.2234, "ARG_OF_PERICENTER": 277.4707, "MEAN_ANOMALY": 82.5922, "EPHEMERIS_TYPE": 0, "CLASSIFICATION_TYPE": "U", "NORAD_CAT_ID": 66664, "ELEMENT_SET_NO": 999, "REV_AT_EPOCH": 128, "BSTAR": 0.00013711052, "MEAN_MOTION_DOT": 7.293e-05, "MEAN_MOTION_DDOT": 0}, "tle": {"line1": "1 66664U 25275A   25354.66673768  .00007293  00000+0  13711-3 0  9993", "line2": "2 66664  51.6321 103.2234 0003163 277.4707  82.5922 15.49686708  1283"}}, "geometry": {"type": "Point", "coordinates": [114.5615473438166, 17.597949948877677]}}]}